[{"OBJECT_NAME":"OBJECT A","OBJECT_ID":"2023-085A","EPOCH":"2026-03-09T21:42:39.504096","MEAN_MOTION":15.28003151,"ECCENTRICITY":0.00073195,"INCLINATION":97.4858,"RA_OF_ASC_NODE":178.2033,"ARG_OF_PERICENTER":32.2499,"MEAN_ANOMALY":327.9186,"EPHEMERIS_TYPE":0,"CLASSIFICATION_TYPE":"U","NORAD_CAT_ID":57004,"ELEMENT_SET_NO":999,"REV_AT_EPOCH":15139,"BSTAR":0.00063583858,"MEAN_MOTION_DOT":0.0001733,"MEAN_MOTION_DDOT":0},{"OBJECT_NAME":"STARLINK-32334","OBJECT_ID":"2024-213R","EPOCH":"2026-03-09T12:35:20.466816","MEAN_MOTION":15.30212185,"ECCENTRICITY":0.00015614,"INCLINATION":53.161,"RA_OF_ASC_NODE":168.6006,"ARG_OF_PERICENTER":157.5927,"MEAN_ANOMALY":202.5143,"EPHEMERIS_TYPE":0,"CLASSIFICATION_TYPE":"U","NORAD_CAT_ID":62023,"ELEMENT_SET_NO":999,"REV_AT_EPOCH":7313,"BSTAR":0.00089148182,"MEAN_MOTION_DOT":0.00026147,"MEAN_MOTION_DDOT":0}]
